[{"OBJECT_NAME":"SL-8 R/B","OBJECT_ID":"1991-006B","EPOCH":"2026-04-02T10:31:56.341920","MEAN_MOTION":13.77498238,"ECCENTRICITY":0.00215504,"INCLINATION":82.9438,"RA_OF_ASC_NODE":152.3887,"ARG_OF_PERICENTER":331.9533,"MEAN_ANOMALY":38.2724,"EPHEMERIS_TYPE":0,"CLASSIFICATION_TYPE":"U","NORAD_CAT_ID":21088,"ELEMENT_SET_NO":999,"REV_AT_EPOCH":76734,"BSTAR":0.00012809282,"MEAN_MOTION_DOT":1.43e-6,"MEAN_MOTION_DDOT":0},{"OBJECT_NAME":"OKEAN-3","OBJECT_ID":"1991-039A","EPOCH":"2026-04-02T21:10:22.765152","MEAN_MOTION":15.04952572,"ECCENTRICITY":0.0012667,"INCLINATION":82.5151,"RA_OF_ASC_NODE":313.4014,"ARG_OF_PERICENTER":247.519,"MEAN_ANOMALY":112.4695,"EPHEMERIS_TYPE":0,"CLASSIFICATION_TYPE":"U","NORAD_CAT_ID":21397,"ELEMENT_SET_NO":999,"REV_AT_EPOCH":86867,"BSTAR":0.00033473,"MEAN_MOTION_DOT":4.777e-5,"MEAN_MOTION_DDOT":0},{"OBJECT_NAME":"COSMOS 2151","OBJECT_ID":"1991-042A","EPOCH":"2026-04-02T19:54:08.673120","MEAN_MOTION":15.00216426,"ECCENTRICITY":0.0011851,"INCLINATION":82.4954,"RA_OF_ASC_NODE":60.3833,"ARG_OF_PERICENTER":346.7845,"MEAN_ANOMALY":13.3067,"EPHEMERIS_TYPE":0,"CLASSIFICATION_TYPE":"U","NORAD_CAT_ID":21422,"ELEMENT_SET_NO":999,"REV_AT_EPOCH":86681,"BSTAR":0.00027525,"MEAN_MOTION_DOT":3.472e-5,"MEAN_MOTION_DDOT":0},{"OBJECT_NAME":"SL-14 R/B","OBJECT_ID":"1991-042B","EPOCH":"2026-04-02T12:38:22.631712","MEAN_MOTION":14.81854302,"ECCENTRICITY":0.00176101,"INCLINATION":82.4959,"RA_OF_ASC_NODE":197.8354,"ARG_OF_PERICENTER":158.3228,"MEAN_ANOMALY":201.8736,"EPHEMERIS_TYPE":0,"CLASSIFICATION_TYPE":"U","NORAD_CAT_ID":21423,"ELEMENT_SET_NO":999,"REV_AT_EPOCH":85660,"BSTAR":7.0441805e-5,"MEAN_MOTION_DOT":5.81e-6,"MEAN_MOTION_DDOT":0},{"OBJECT_NAME":"ERS-1","OBJECT_ID":"1991-050A","EPOCH":"2026-04-02T07:56:33.033696","MEAN_MOTION":14.39468158,"ECCENTRICITY":0.00328663,"INCLINATION":98.786,"RA_OF_ASC_NODE":111.1582,"ARG_OF_PERICENTER":130.9454,"MEAN_ANOMALY":229.4586,"EPHEMERIS_TYPE":0,"CLASSIFICATION_TYPE":"U","NORAD_CAT_ID":21574,"ELEMENT_SET_NO":999,"REV_AT_EPOCH":81913,"BSTAR":0.00016629703,"MEAN_MOTION_DOT":4.75e-6,"MEAN_MOTION_DDOT":0},{"OBJECT_NAME":"ARIANE 40 R/B","OBJECT_ID":"1991-050F","EPOCH":"2026-04-02T14:28:21.804960","MEAN_MOTION":14.42911328,"ECCENTRICITY":0.00032737,"INCLINATION":98.1962,"RA_OF_ASC_NODE":143.9363,"ARG_OF_PERICENTER":26.1678,"MEAN_ANOMALY":333.9678,"EPHEMERIS_TYPE":0,"CLASSIFICATION_TYPE":"U","NORAD_CAT_ID":21610,"ELEMENT_SET_NO":999,"REV_AT_EPOCH":82244,"BSTAR":0.00012363205,"MEAN_MOTION_DOT":3.71e-6,"MEAN_MOTION_DDOT":0},{"OBJECT_NAME":"INTERCOSMOS 25","OBJECT_ID":"1991-086A","EPOCH":"2026-04-02T20:14:38.436288","MEAN_MOTION":12.12085732,"ECCENTRICITY":0.1486377,"INCLINATION":82.6,"RA_OF_ASC_NODE":295.4046,"ARG_OF_PERICENTER":64.8923,"MEAN_ANOMALY":309.8841,"EPHEMERIS_TYPE":0,"CLASSIFICATION_TYPE":"U","NORAD_CAT_ID":21819,"ELEMENT_SET_NO":999,"REV_AT_EPOCH":49961,"BSTAR":0.00048757,"MEAN_MOTION_DOT":2.517e-5,"MEAN_MOTION_DDOT":0},{"OBJECT_NAME":"SL-8 R/B","OBJECT_ID":"1992-008B","EPOCH":"2026-04-02T16:59:55.068000","MEAN_MOTION":13.75969765,"ECCENTRICITY":0.0035844,"INCLINATION":82.924,"RA_OF_ASC_NODE":249.9065,"ARG_OF_PERICENTER":68.5837,"MEAN_ANOMALY":302.2969,"EPHEMERIS_TYPE":0,"CLASSIFICATION_TYPE":"U","NORAD_CAT_ID":21876,"ELEMENT_SET_NO":999,"REV_AT_EPOCH":71272,"BSTAR":1.4168e-9,"MEAN_MOTION_DOT":1.6e-7,"MEAN_MOTION_DDOT":0},{"OBJECT_NAME":"SL-8 R/B","OBJECT_ID":"1992-020B","EPOCH":"2026-04-02T20:44:16.308096","MEAN_MOTION":13.75550693,"ECCENTRICITY":0.0027966,"INCLINATION":82.9294,"RA_OF_ASC_NODE":135.8115,"ARG_OF_PERICENTER":228.2428,"MEAN_ANOMALY":303.9574,"EPHEMERIS_TYPE":0,"CLASSIFICATION_TYPE":"U","NORAD_CAT_ID":21938,"ELEMENT_SET_NO":999,"REV_AT_EPOCH":70445,"BSTAR":2.7093e-5,"MEAN_MOTION_DOT":4.1e-7,"MEAN_MOTION_DDOT":0},{"OBJECT_NAME":"USA 81","OBJECT_ID":"1992-023A","EPOCH":"2026-04-02T19:54:29.733120","MEAN_MOTION":14.32376209,"ECCENTRICITY":0.0001585,"INCLINATION":85.004,"RA_OF_ASC_NODE":117.5089,"ARG_OF_PERICENTER":69.3729,"MEAN_ANOMALY":290.7633,"EPHEMERIS_TYPE":0,"CLASSIFICATION_TYPE":"U","NORAD_CAT_ID":21949,"ELEMENT_SET_NO":999,"REV_AT_EPOCH":9824,"BSTAR":8.3459e-5,"MEAN_MOTION_DOT":2.45e-6,"MEAN_MOTION_DDOT":0},{"OBJECT_NAME":"COSMOS 2219","OBJECT_ID":"1992-076A","EPOCH":"2026-04-02T15:25:27.201216","MEAN_MOTION":14.14089183,"ECCENTRICITY":0.00177301,"INCLINATION":71.0611,"RA_OF_ASC_NODE":327.9999,"ARG_OF_PERICENTER":170.9526,"MEAN_ANOMALY":189.192,"EPHEMERIS_TYPE":0,"CLASSIFICATION_TYPE":"U","NORAD_CAT_ID":22219,"ELEMENT_SET_NO":999,"REV_AT_EPOCH":72176,"BSTAR":-7.8439378e-5,"MEAN_MOTION_DOT":-1.97e-6,"MEAN_MOTION_DDOT":0},{"OBJECT_NAME":"SL-16 R/B","OBJECT_ID":"1992-076B","EPOCH":"2026-04-02T20:43:04.610784","MEAN_MOTION":14.16862892,"ECCENTRICITY":0.0010862,"INCLINATION":70.9987,"RA_OF_ASC_NODE":137.456,"ARG_OF_PERICENTER":51.7024,"MEAN_ANOMALY":119.5944,"EPHEMERIS_TYPE":0,"CLASSIFICATION_TYPE":"U","NORAD_CAT_ID":22220,"ELEMENT_SET_NO":999,"REV_AT_EPOCH":72525,"BSTAR":-5.6572e-5,"MEAN_MOTION_DOT":-1.61e-6,"MEAN_MOTION_DDOT":0},{"OBJECT_NAME":"COSMOS 2221","OBJECT_ID":"1992-080A","EPOCH":"2026-04-02T18:42:25.194528","MEAN_MOTION":14.96309725,"ECCENTRICITY":0.0015678,"INCLINATION":82.501,"RA_OF_ASC_NODE":255.998,"ARG_OF_PERICENTER":110.1705,"MEAN_ANOMALY":250.1205,"EPHEMERIS_TYPE":0,"CLASSIFICATION_TYPE":"U","NORAD_CAT_ID":22236,"ELEMENT_SET_NO":999,"REV_AT_EPOCH":78439,"BSTAR":0.00032072,"MEAN_MOTION_DOT":3.659e-5,"MEAN_MOTION_DDOT":0},{"OBJECT_NAME":"SL-16 R/B","OBJECT_ID":"1992-093B","EPOCH":"2026-04-02T18:24:55.315296","MEAN_MOTION":14.15455997,"ECCENTRICITY":0.0006626,"INCLINATION":71.0223,"RA_OF_ASC_NODE":313.723,"ARG_OF_PERICENTER":270.6338,"MEAN_ANOMALY":89.4026,"EPHEMERIS_TYPE":0,"CLASSIFICATION_TYPE":"U","NORAD_CAT_ID":22285,"ELEMENT_SET_NO":999,"REV_AT_EPOCH":71656,"BSTAR":1.1675e-5,"MEAN_MOTION_DOT":-2.5e-7,"MEAN_MOTION_DDOT":0},{"OBJECT_NAME":"COSMOS 2228","OBJECT_ID":"1992-094A","EPOCH":"2026-04-02T18:42:45.084672","MEAN_MOTION":14.97321613,"ECCENTRICITY":0.0017157,"INCLINATION":82.5198,"RA_OF_ASC_NODE":214.2453,"ARG_OF_PERICENTER":216.9399,"MEAN_ANOMALY":143.0644,"EPHEMERIS_TYPE":0,"CLASSIFICATION_TYPE":"U","NORAD_CAT_ID":22286,"ELEMENT_SET_NO":999,"REV_AT_EPOCH":77966,"BSTAR":0.00026009,"MEAN_MOTION_DOT":3.051e-5,"MEAN_MOTION_DDOT":0},{"OBJECT_NAME":"SL-16 R/B","OBJECT_ID":"1993-016B","EPOCH":"2026-04-02T10:57:44.739648","MEAN_MOTION":14.15307231,"ECCENTRICITY":0.00123604,"INCLINATION":71.0074,"RA_OF_ASC_NODE":165.2671,"ARG_OF_PERICENTER":283.5979,"MEAN_ANOMALY":76.3767,"EPHEMERIS_TYPE":0,"CLASSIFICATION_TYPE":"U","NORAD_CAT_ID":22566,"ELEMENT_SET_NO":999,"REV_AT_EPOCH":70553,"BSTAR":0.00016673255,"MEAN_MOTION_DOT":2.77e-6,"MEAN_MOTION_DDOT":0},{"OBJECT_NAME":"COSMOS 2242","OBJECT_ID":"1993-024A","EPOCH":"2026-04-02T10:30:48.430656","MEAN_MOTION":14.96658579,"ECCENTRICITY":0.00153794,"INCLINATION":82.517,"RA_OF_ASC_NODE":243.9944,"ARG_OF_PERICENTER":221.8663,"MEAN_ANOMALY":138.1384,"EPHEMERIS_TYPE":0,"CLASSIFICATION_TYPE":"U","NORAD_CAT_ID":22626,"ELEMENT_SET_NO":999,"REV_AT_EPOCH":78394,"BSTAR":0.00031042379,"MEAN_MOTION_DOT":3.573e-5,"MEAN_MOTION_DDOT":0}]
