SL-8 R/B                
1 21088U 91006B   26092.43884655  .00000143  00000+0  12809-3 0  9997
2 21088  82.9438 152.3887 0021550 331.9533  38.2724 13.77498238767344
OKEAN-3                 
1 21397U 91039A   26092.88220793  .00004777  00000+0  33473-3 0  9999
2 21397  82.5151 313.4014 0012667 247.5190 112.4695 15.04952572868675
COSMOS 2151             
1 21422U 91042A   26092.82926705  .00003472  00000+0  27525-3 0  9994
2 21422  82.4954  60.3833 0011851 346.7845  13.3067 15.00216426866817
SL-14 R/B               
1 21423U 91042B   26092.52665083  .00000581  00000+0  70442-4 0  9996
2 21423  82.4959 197.8354 0017610 158.3228 201.8736 14.81854302856600
ERS-1                   
1 21574U 91050A   26092.33093789  .00000475  00000+0  16630-3 0  9999
2 21574  98.7860 111.1582 0032866 130.9454 229.4586 14.39468158819136
ARIANE 40 R/B           
1 21610U 91050F   26092.60303015  .00000371  00000+0  12363-3 0  9990
2 21610  98.1962 143.9363 0003273  26.1678 333.9678 14.42911328822445
INTERCOSMOS 25          
1 21819U 91086A   26092.84350042  .00002517  00000+0  48757-3 0  9998
2 21819  82.6000 295.4046 1486377  64.8923 309.8841 12.12085732499610
SL-8 R/B                
1 21876U 92008B   26092.70827625  .00000016  00000+0  14168-8 0  9993
2 21876  82.9240 249.9065 0035844  68.5837 302.2969 13.75969765712725
SL-8 R/B                
1 21938U 92020B   26092.86407764  .00000041  00000+0  27093-4 0  9996
2 21938  82.9294 135.8115 0027966 228.2428 303.9574 13.75550693704456
USA 81                  
1 21949U 92023A   26092.82951080  .00000245  00000+0  83459-4 0  9996
2 21949  85.0040 117.5089 0001585  69.3729 290.7633 14.32376209 98240
COSMOS 2219             
1 22219U 92076A   26092.64267594 -.00000197  00000+0 -78439-4 0  9995
2 22219  71.0611 327.9999 0017730 170.9526 189.1920 14.14089183721762
SL-16 R/B               
1 22220U 92076B   26092.86324781 -.00000161  00000+0 -56572-4 0  9998
2 22220  70.9987 137.4560 0010862  51.7024 119.5944 14.16862892725253
COSMOS 2221             
1 22236U 92080A   26092.77945827  .00003659  00000+0  32072-3 0  9991
2 22236  82.5010 255.9980 0015678 110.1705 250.1205 14.96309725784395
SL-16 R/B               
1 22285U 92093B   26092.76730689 -.00000025  00000+0  11675-4 0  9998
2 22285  71.0223 313.7230 0006626 270.6338  89.4026 14.15455997716568
COSMOS 2228             
1 22286U 92094A   26092.77968848  .00003051  00000+0  26009-3 0  9998
2 22286  82.5198 214.2453 0017157 216.9399 143.0644 14.97321613779660
SL-16 R/B               
1 22566U 93016B   26092.45676782  .00000277  00000+0  16673-3 0  9995
2 22566  71.0074 165.2671 0012360 283.5979  76.3767 14.15307231705538
COSMOS 2242             
1 22626U 93024A   26092.43806054  .00003573  00000+0  31042-3 0  9995
2 22626  82.5170 243.9944 0015379 221.8663 138.1384 14.96658579783940
